NORAD_CAT_ID,OBJECT_NAME,OBJECT_TYPE,EPOCH,MEAN_MOTION,ECCENTRICITY,INCLINATION,RA_OF_ASC_NODE,ARG_OF_PERICENTER,MEAN_ANOMALY,BSTAR,MEAN_MOTION_DOT,MEAN_MOTION_DDOT,TLE_LINE0,TLE_LINE1,TLE_LINE2,SEMIMAJOR_AXIS,PERIOD,APOGEE,PERIGEE,DECAYED
50199.0,STARLINK-3270,PAYLOAD,2022-09-03 09:22:25,15.08841397,0.0002124,53.2161,240.0682,47.5476,312.5695,0.00012767,1.744e-05,0.0,0 STARLINK-3270,1 50199U 21125AV  22246.39057442  .00001744  00000-0  12767-3 0  9997,2 50199  53.2161 240.0682 0002124  47.5476 312.5695 15.08841397 42999,6917.876,95.437,541.21,538.2719999999998,0.0
50199.0,STARLINK-3270,PAYLOAD,2022-09-04 04:27:02,15.08850566,0.0002164,53.2163,236.4997,48.7849,311.3329,0.00014018,1.944e-05,0.0,0 STARLINK-3270,1 50199U 21125AV  22247.18544614  .00001944  00000-0  14018-3 0  9990,2 50199  53.2163 236.4997 0002164  48.7849 311.3329 15.08850566 42630,6917.848000000001,95.437,541.21,538.216,0.0
50199.0,STARLINK-3270,PAYLOAD,2022-09-04 09:13:11,15.08853211,0.000217,53.2163,235.6075,49.8469,310.2713,0.0001619,2.29e-05,0.0,0 STARLINK-3270,1 50199U 21125AV  22247.38416320  .00002290  00000-0  16190-3 0  9992,2 50199  53.2163 235.6075 0002170  49.8469 310.2713 15.08853211 43147,6917.84,95.437,541.206,538.2040000000002,0.0
50199.0,STARLINK-3270,PAYLOAD,2022-09-05 04:17:49,15.08849831,0.0002228,53.2155,232.0384,52.7392,307.3803,7.524699999999999e-05,9.1e-06,0.0,0 STARLINK-3270,1 50199U 21125AV  22248.17904481  .00000910  00000-0  75247-4 0  9996,2 50199  53.2155 232.0384 0002228  52.7392 307.3803 15.08849831 42783,6917.85,95.437,541.257,538.174,0.0
50199.0,STARLINK-3270,PAYLOAD,2022-09-05 09:03:59,15.08842757,0.0002246,53.2166,231.1472,51.5354,308.584,1.2695e-05,-8.6e-07,0.0,0 STARLINK-3270,1 50199U 21125AV  22248.37776872 -.00000086  00000-0  12695-4 0  9992,2 50199  53.2166 231.1472 0002246  51.5354 308.5840 15.08842757 43299,6917.871999999999,95.437,541.2909999999998,538.183,0.0
50199.0,STARLINK-3270,PAYLOAD,2022-09-06 08:54:46,15.08840479,0.0002176,53.2169,226.6873,49.3213,310.7968,-7.772e-05,-1.525e-05,0.0,0 STARLINK-3270,1 50199U 21125AV  22249.37136933 -.00001525  00000-0 -77720-4 0  9991,2 50199  53.2169 226.6873 0002176  49.3213 310.7968 15.08840479 43449,6917.879,95.438,541.249,538.239,0.0
50199.0,STARLINK-3270,PAYLOAD,2022-09-06 15:16:19,15.08837731,0.0002209,53.2168,225.498,50.2423,309.8763,-0.00011703,-2.15e-05,0.0,0 STARLINK-3270,1 50199U 21125AV  22249.63633244 -.00002150  00000-0 -11703-3 0  9990,2 50199  53.2168 225.4980 0002209  50.2423 309.8763 15.08837731 43488,6917.887,95.438,541.28,538.224,0.0
50199.0,STARLINK-3270,PAYLOAD,2022-09-07 08:45:33,15.08838436,0.0002266,53.217,222.2262,49.3731,310.7458,7.6365e-05,9.27e-06,0.0,0 STARLINK-3270,1 50199U 21125AV  22250.36496850  .00000927  00000-0  76365-4 0  9996,2 50199  53.2170 222.2262 0002266  49.3731 310.7458 15.08838436 43590,6917.885,95.438,541.318,538.183,0.0
50199.0,STARLINK-3270,PAYLOAD,2022-09-07 15:07:06,15.08831077,0.0002238,53.2171,221.0366,47.3613,312.7568,2.541e-05,1.16e-06,0.0,0 STARLINK-3270,1 50199U 21125AV  22250.62993609  .00000116  00000-0  25410-4 0  9994,2 50199  53.2171 221.0366 0002238  47.3613 312.7568 15.08831077 43632,6917.908,95.438,541.321,538.224,0.0
50199.0,STARLINK-3270,PAYLOAD,2022-09-08 07:00:57,15.08837084,0.0002191999999999,53.2172,218.0621,55.3675,304.7524,-3.943e-05,-9.16e-06,0.0,0 STARLINK-3270,1 50199U 21125AV  22251.29233762 -.00000916  00000-0 -39430-4 0  9992,2 50199  53.2172 218.0621 0002192  55.3675 304.7524 15.08837084 43737,6917.889,95.438,541.271,538.238,0.0
50199.0,STARLINK-3270,PAYLOAD,2022-09-09 03:40:58,15.08844088,0.0002133,53.2174,214.1955,50.5975,309.5206,0.00015643,2.203e-05,0.0,0 STARLINK-3270,1 50199U 21125AV  22252.15345052  .00002203  00000-0  15643-3 0  9992,2 50199  53.2174 214.1955 0002133  50.5975 309.5206 15.08844088 43384,6917.868,95.437,541.2080000000002,538.257,0.0
50199.0,STARLINK-3270,PAYLOAD,2022-09-09 06:51:44,15.08848138,0.0002056999999999,53.2168,213.6015,50.1894,309.9278,0.00016156,2.285e-05,0.0,0 STARLINK-3270,1 50199U 21125AV  22252.28592787  .00002285  00000-0  16156-3 0  9995,2 50199  53.2168 213.6015 0002057  50.1894 309.9278 15.08848138 43887,6917.856,95.437,541.144,538.298,0.0
50199.0,STARLINK-3270,PAYLOAD,2022-09-10 03:31:45,15.08844059,0.000208,53.2173,209.7376,46.57,313.5465,0.00012716,1.736e-05,0.0,0 STARLINK-3270,1 50199U 21125AV  22253.14705142  .00001736  00000-0  12716-3 0  9990,2 50199  53.2173 209.7376 0002080  46.5700 313.5465 15.08844059 43539,6917.868,95.437,541.172,538.294,0.0
50199.0,STARLINK-3270,PAYLOAD,2022-09-10 06:42:32,15.08837385,0.0002174,53.2172,209.143,45.367,314.7499,7.2818e-05,8.71e-06,0.0,0 STARLINK-3270,1 50199U 21125AV  22253.27953741  .00000871  00000-0  72818-4 0  9993,2 50199  53.2172 209.1430 0002174  45.3670 314.7499 15.08837385 43556,6917.888000000001,95.438,541.257,538.249,0.0
50199.0,STARLINK-3270,PAYLOAD,2022-09-11 03:22:32,15.08861066,0.000256,53.2175,205.28,37.4034,322.7136,-0.00015787,-2.802e-05,0.0,0 STARLINK-3270,1 50199U 21125AV  22254.14064881 -.00002802  00000-0 -15787-3 0  9997,2 50199  53.2175 205.2800 0002560  37.4034 322.7136 15.08861066 43686,6917.816,95.436,541.452,537.91,0.0
50199.0,STARLINK-3270,PAYLOAD,2022-09-11 06:33:18,15.08849578,0.0002367,53.2175,204.6835,44.1281,315.9899,2.5131e-05,1.12e-06,0.0,0 STARLINK-3270,1 50199U 21125AV  22254.27312927  .00000112  00000-0  25131-4 0  9993,2 50199  53.2175 204.6835 0002367  44.1281 315.9899 15.08849578 44181,6917.851,95.437,541.354,538.0790000000002,0.0
50199.0,STARLINK-3270,PAYLOAD,2022-09-12 04:48:42,15.08842646,0.0001784,53.2187,200.5164,66.8236,293.2944,-1.8764e-05,-5.87e-06,0.0,0 STARLINK-3270,1 50199U 21125AV  22255.20049303 -.00000587  00000-0 -18764-4 0  9994,2 50199  53.2187 200.5164 0001784  66.8236 293.2944 15.08842646 43847,6917.871999999999,95.437,540.971,538.503,0.0
50199.0,STARLINK-3270,PAYLOAD,2022-09-13 12:36:25,15.08844336,0.0001943,53.2154,194.5706,45.4454,314.6696,8.269200000000001e-05,1.028e-05,0.0,0 STARLINK-3270,1 50199U 21125AV  22256.52528970  .00001028  00000-0  82692-4 0  9992,2 50199  53.2154 194.5706 0001943  45.4454 314.6696 15.08844336 44040,6917.8669999999975,95.437,541.076,538.388,0.0
50199.0,STARLINK-3270,PAYLOAD,2022-09-14 04:30:16,15.08840053,0.0002046999999999,53.2188,191.5969,49.9125,310.2047,7.729300000000001e-05,9.42e-06,0.0,0 STARLINK-3270,1 50199U 21125AV  22257.18769456  .00000942  00000-0  77293-4 0  9996,2 50199  53.2188 191.5969 0002047  49.9125 310.2047 15.08840053 44140,6917.88,95.438,541.161,538.3290000000002,0.0
50199.0,STARLINK-3270,PAYLOAD,2022-09-14 06:05:39,15.08839564,0.0002026,53.2189,191.2997,51.8105,308.3069,8.1121e-05,1.003e-05,0.0,0 STARLINK-3270,1 50199U 21125AV  22257.25393478  .00001003  00000-0  81121-4 0  9995,2 50199  53.2189 191.2997 0002026  51.8105 308.3069 15.08839564 44637,6917.882,95.438,541.148,538.345,0.0
50199.0,STARLINK-3270,PAYLOAD,2022-09-14 20:24:08,15.08845376,0.0001882,53.2174,188.6242,44.3997,315.7146,-6.256e-06,-3.88e-06,0.0,0 STARLINK-3270,1 50199U 21125AV  22257.85009310 -.00000388  00000-0 -62560-5 0  9994,2 50199  53.2174 188.6242 0001882  44.3997 315.7146 15.08845376 44725,6917.864000000001,95.437,541.031,538.427,0.0
50199.0,STARLINK-3270,PAYLOAD,2022-09-15 05:56:26,15.08844903,0.0001924,53.2175,186.84,45.6066,314.5083,-2.4777e-06,-3.28e-06,0.0,0 STARLINK-3270,1 50199U 21125AV  22258.24753264 -.00000328  00000-0 -24777-5 0  9994,2 50199  53.2175 186.8400 0001924  45.6066 314.5083 15.08844903 44788,6917.865,95.437,541.061,538.399,0.0
50199.0,STARLINK-3270,PAYLOAD,2022-09-15 20:14:54,15.08841651,0.0001904,53.2178,184.1639,44.48,315.6345,0.00010954,1.456e-05,0.0,0 STARLINK-3270,1 50199U 21125AV  22258.84369114  .00001456  00000-0  10954-3 0  9998,2 50199  53.2178 184.1639 0001904  44.4800 315.6345 15.08841651 44877,6917.875,95.437,541.058,538.423,0.0
50199.0,STARLINK-3270,PAYLOAD,2022-09-15 23:25:41,15.08841289,0.0001909999999999,53.2177,183.5693,44.3985,315.716,0.00010355,1.36e-05,0.0,0 STARLINK-3270,1 50199U 21125AV  22258.97617160  .00001360  00000-0  10355-3 0  9998,2 50199  53.2177 183.5693 0001910  44.3985 315.7160 15.08841289 44412,6917.876,95.437,541.063,538.42,0.0
50199.0,STARLINK-3270,PAYLOAD,2022-09-16 12:08:46,15.08835692,0.0001865999999999,53.2175,181.1907,44.8331,315.2811,6.1425e-06,-1.9e-06,0.0,0 STARLINK-3270,1 50199U 21125AV  22259.50609796 -.00000190  00000-0  61425-5 0  9991,2 50199  53.2175 181.1907 0001866  44.8331 315.2811 15.08835692 44972,6917.894,95.438,541.049,538.4680000000002,0.0
50199.0,STARLINK-3270,PAYLOAD,2022-09-16 20:05:43,15.08826201,0.0001862,53.2172,179.7036,46.8475,313.2673,-1.6556e-05,-5.51e-06,0.0,0 STARLINK-3270,1 50199U 21125AV  22259.83730632 -.00000551  00000-0 -16556-4 0  9997,2 50199  53.2172 179.7036 0001862  46.8475 313.2673 15.08826201 44545,6917.9230000000025,95.438,541.076,538.499,0.0
50199.0,STARLINK-3270,PAYLOAD,2022-09-17 11:59:34,15.08834216,0.0001889999999999,53.2173,176.7303,47.6146,312.5006,9.2651e-06,-1.41e-06,0.0,0 STARLINK-3270,1 50199U 21125AV  22260.49970468 -.00000141  00000-0  92651-5 0  9999,2 50199  53.2173 176.7303 0001890  47.6146 312.5006 15.08834216 45127,6917.898,95.438,541.071,538.456,0.0
50199.0,STARLINK-3270,PAYLOAD,2022-09-18 03:53:25,15.08841366,0.0001898,53.2172,173.7566,47.1696,312.9455,7.9345e-05,9.75e-06,0.0,0 STARLINK-3270,1 50199U 21125AV  22261.16209959  .00000975  00000-0  79345-4 0  9992,2 50199  53.2172 173.7566 0001898  47.1696 312.9455 15.08841366 44740,6917.876,95.437,541.054,538.428,0.0
50199.0,STARLINK-3270,PAYLOAD,2022-09-18 11:50:21,15.08835443,0.0001881,53.217,172.2694,48.9324,311.183,1.9981e-05,3e-07,0.0,0 STARLINK-3270,1 50199U 21125AV  22261.49330575  .00000030  00000-0  19981-4 0  9999,2 50199  53.2170 172.2694 0001881  48.9324 311.1830 15.08835443 44795,6917.894,95.438,541.061,538.4580000000002,0.0
